IRIDIUM 150             
1 43257U 18030J   25006.88421007  .00000701  00000+0  24308-3 0  9993
2 43257  86.3999 150.4839 0002001 101.3529 258.7891 14.34214057354723
IRIDIUM 143             
1 43258U 18030K   25006.93494957  .00000545  00000+0  18752-3 0  9996
2 43258  86.4002 150.5346 0002091 109.0702 251.0720 14.34212840354669
IRIDIUM 161             
1 43478U 18047C   25007.43321277  .00000850  00000+0  24689-3 0  9993
2 43478  86.4503 308.1747 0002111  84.6991 275.4451 14.43264439349303
IRIDIUM 152             
1 43479U 18047D   25007.32627863  .00000588  00000+0  20289-3 0  9992
2 43479  86.3976 308.0792 0002046  83.5595 276.5834 14.34217787347120
IRIDIUM 147             
1 43480U 18047E   25007.12331577  .00000532  00000+0  18306-3 0  9992
2 43480  86.3984 308.1598 0002361  75.6608 284.4850 14.34213385347084
IRIDIUM 110             
1 43481U 18047F   25006.92035316  .00001296  00000+0  45584-3 0  9998
2 43481  86.3977 308.3230 0002023  73.7104 286.4315 14.34213921347047
IRIDIUM 162             
1 43482U 18047G   25006.87227917  .00001067  00000+0  31119-3 0  9998
2 43482  86.4501 308.3067 0001991  83.4673 276.6754 14.43289383349216
IRIDIUM 160             
1 43569U 18061A   25006.79640684  .00000761  00000+0  26471-3 0  9996
2 43569  86.3962 276.7340 0002327  76.6799 283.4657 14.34211851337929
